CSS (TIANHE)            
1 48274U 21035A   23180.26972424  .00023077  00000+0  28643-3 0  9990
2 48274  41.4746  82.5053 0006597 174.8857 185.2050 15.59446815123727
